{
  "norad_id": 51732,
  "name": "STARLINK-3518",
  "history": [
    {
      "epoch": "2026-03-28T16:10:39.095904",
      "apogee_km": 540.7457519967456,
      "perigee_km": 538.7210296907542,
      "latitude_deg": -50.01241726755669,
      "longitude_deg": 137.91010655998252,
      "semi_major_axis_km": 6917.87039084375,
      "eccentricity": 0.00014634,
      "inclination_deg": 53.2163,
      "raan_deg": 233.8974,
      "arg_perigee_deg": 92.692,
      "mean_anomaly_deg": 267.4239,
      "mean_motion_rev_day": 15.08843271
    }
  ]
}